{
  "norad_id": 53158,
  "name": "STARLINK-4054",
  "history": [
    {
      "epoch": "2026-03-28T16:07:20.984160Z",
      "apogee_km": 540.7472663633207,
      "perigee_km": 538.7708234632892,
      "latitude_deg": 4.667856447414863e-05,
      "longitude_deg": 10.97793750325455,
      "height_km": 540.5273529142894,
      "semi_major_axis_km": 6917.896044913305,
      "eccentricity": 0.00014285,
      "inclination_deg": 53.2169,
      "raan_deg": 78.9042,
      "arg_perigee_deg": 82.6011,
      "mean_anomaly_deg": 277.5144,
      "mean_motion_rev_day": 15.08834878
    },
    {
      "epoch": "2026-03-29T04:50:25.895040Z",
      "apogee_km": 540.7370641787948,
      "perigee_km": 538.7571657450926,
      "latitude_deg": -2.1522903440536152e-05,
      "longitude_deg": 177.30591380231917,
      "height_km": 540.4963429693062,
      "semi_major_axis_km": 6917.884114961943,
      "eccentricity": 0.0001431,
      "inclination_deg": 53.2171,
      "raan_deg": 76.525,
      "arg_perigee_deg": 81.497,
      "mean_anomaly_deg": 278.6184,
      "mean_motion_rev_day": 15.08838781
    },
    {
      "epoch": "2026-03-30T04:41:10.552128Z",
      "apogee_km": 540.413291300215,
      "perigee_km": 538.9591648576725,
      "latitude_deg": -2.2971037292775826e-05,
      "longitude_deg": 174.18003249213106,
      "height_km": 540.7521069806419,
      "semi_major_axis_km": 6917.823228078943,
      "eccentricity": 0.0001051,
      "inclination_deg": 53.217,
      "raan_deg": 72.0645,
      "arg_perigee_deg": 103.5014,
      "mean_anomaly_deg": 256.6095,
      "mean_motion_rev_day": 15.08858701
    },
    {
      "epoch": "2026-03-30T04:41:10.552992Z",
      "apogee_km": 540.4132221219816,
      "perigee_km": 538.959234035905,
      "latitude_deg": -2.2072870118191228e-05,
      "longitude_deg": 174.18002955009024,
      "height_km": 540.752090829858,
      "semi_major_axis_km": 6917.823228078943,
      "eccentricity": 0.00010509,
      "inclination_deg": 53.217,
      "raan_deg": 72.0645,
      "arg_perigee_deg": 103.5014,
      "mean_anomaly_deg": 256.6095,
      "mean_motion_rev_day": 15.08858701
    },
    {
      "epoch": "2026-03-30T06:16:36.640416Z",
      "apogee_km": 540.7301479557,
      "perigee_km": 538.8747565945996,
      "latitude_deg": 2.497704281018905e-05,
      "longitude_deg": 149.9596442167187,
      "height_km": 540.5468063563618,
      "semi_major_axis_km": 6917.93945227515,
      "eccentricity": 0.0001341,
      "inclination_deg": 53.2173,
      "raan_deg": 71.7681,
      "arg_perigee_deg": 80.6083,
      "mean_anomaly_deg": 279.5061,
      "mean_motion_rev_day": 15.08820677
    },
    {
      "epoch": "2026-03-30T22:10:27.964992Z",
      "apogee_km": 540.6107122074327,
      "perigee_km": 538.9573290834969,
      "latitude_deg": 2.696134800580627e-05,
      "longitude_deg": -92.13119677061671,
      "height_km": 540.6185786034806,
      "semi_major_axis_km": 6917.9210206454645,
      "eccentricity": 0.0001195,
      "inclination_deg": 53.2171,
      "raan_deg": 68.794,
      "arg_perigee_deg": 85.7448,
      "mean_anomaly_deg": 274.3681,
      "mean_motion_rev_day": 15.08826707
    },
    {
      "epoch": "2026-03-31T15:39:42.391872Z",
      "apogee_km": 540.7469511940062,
      "perigee_km": 538.7615164099043,
      "latitude_deg": -4.724058010311389e-06,
      "longitude_deg": 1.568889107265899,
      "height_km": 540.5727148956987,
      "semi_major_axis_km": 6917.8912338019545,
      "eccentricity": 0.0001435,
      "inclination_deg": 53.218,
      "raan_deg": 65.5224,
      "arg_perigee_deg": 85.5403,
      "mean_anomaly_deg": 274.5753,
      "mean_motion_rev_day": 15.08836452
    },
    {
      "epoch": "2026-04-01T15:30:29.485440Z",
      "apogee_km": 540.6679635169794,
      "perigee_km": 538.908043396099,
      "latitude_deg": 5.80906618758121e-05,
      "longitude_deg": -1.566923564910683,
      "height_km": 540.6046211439833,
      "semi_major_axis_km": 6917.925003456538,
      "eccentricity": 0.0001272,
      "inclination_deg": 53.2179,
      "raan_deg": 61.0621,
      "arg_perigee_deg": 84.8324,
      "mean_anomaly_deg": 275.2814,
      "mean_motion_rev_day": 15.08825404
    },
    {
      "epoch": "2026-04-02T04:13:34.501728Z",
      "apogee_km": 540.6403415036639,
      "perigee_km": 538.8906656024656,
      "latitude_deg": -4.0917556421634396e-05,
      "longitude_deg": 164.76069001278356,
      "height_km": 540.5874919694924,
      "semi_major_axis_km": 6917.902503553065,
      "eccentricity": 0.00012646,
      "inclination_deg": 53.2177,
      "raan_deg": 58.683,
      "arg_perigee_deg": 85.1548,
      "mean_anomaly_deg": 274.9588,
      "mean_motion_rev_day": 15.08832765
    },
    {
      "epoch": "2026-04-03T04:04:20.809056Z",
      "apogee_km": 540.6103640460842,
      "perigee_km": 538.8299843237364,
      "latitude_deg": -7.438506104584161e-07,
      "longitude_deg": 161.62794475446745,
      "height_km": 540.5380433447508,
      "semi_major_axis_km": 6917.85717418491,
      "eccentricity": 0.00012868,
      "inclination_deg": 53.2178,
      "raan_deg": 54.2225,
      "arg_perigee_deg": 84.9737,
      "mean_anomaly_deg": 275.1402,
      "mean_motion_rev_day": 15.08847595
    },
    {
      "epoch": "2026-04-04T02:19:46.275168Z",
      "apogee_km": 540.6447713414536,
      "perigee_km": 538.8928808700502,
      "latitude_deg": -9.972206778860655e-06,
      "longitude_deg": -177.3047366077662,
      "height_km": 540.6343118676959,
      "semi_major_axis_km": 6917.905826105752,
      "eccentricity": 0.00012662,
      "inclination_deg": 53.217,
      "raan_deg": 50.06,
      "arg_perigee_deg": 88.0172,
      "mean_anomaly_deg": 272.0965,
      "mean_motion_rev_day": 15.08831678
    },
    {
      "epoch": "2026-04-05T13:18:14.220000Z",
      "apogee_km": 540.5181045364634,
      "perigee_km": 538.9200797791746,
      "latitude_deg": -3.697641654040296e-05,
      "longitude_deg": 10.101055897548823,
      "height_km": 540.7557122965804,
      "semi_major_axis_km": 6917.856092157819,
      "eccentricity": 0.0001155,
      "inclination_deg": 53.2174,
      "raan_deg": 43.5186,
      "arg_perigee_deg": 100.1351,
      "mean_anomaly_deg": 259.9771,
      "mean_motion_rev_day": 15.08847949
    },
    {
      "epoch": "2026-04-06T05:12:06.652224Z",
      "apogee_km": 540.7211535535434,
      "perigee_km": 538.8231559978394,
      "latitude_deg": 1.677959788478023e-05,
      "longitude_deg": 128.00632346534005,
      "height_km": 540.839626270981,
      "semi_major_axis_km": 6917.909154775691,
      "eccentricity": 0.00013718,
      "inclination_deg": 53.2186,
      "raan_deg": 40.5452,
      "arg_perigee_deg": 100.4196,
      "mean_anomaly_deg": 259.6951,
      "mean_motion_rev_day": 15.08830589
    },
    {
      "epoch": "2026-04-07T05:02:53.350944Z",
      "apogee_km": 540.6697739730462,
      "perigee_km": 538.8038850437515,
      "latitude_deg": 2.8209720435411117e-05,
      "longitude_deg": 124.87051844794087,
      "height_km": 540.6536206168506,
      "semi_major_axis_km": 6917.873829508399,
      "eccentricity": 0.00013486,
      "inclination_deg": 53.2184,
      "raan_deg": 36.0833,
      "arg_perigee_deg": 91.2877,
      "mean_anomaly_deg": 268.827,
      "mean_motion_rev_day": 15.08842146
    },
    {
      "epoch": "2026-04-08T12:50:36.141792Z",
      "apogee_km": 540.9734302008474,
      "perigee_km": 538.5368102382636,
      "latitude_deg": 2.645029890537658e-05,
      "longitude_deg": 0.6890346983224128,
      "height_km": 540.5876440744643,
      "semi_major_axis_km": 6917.892120219555,
      "eccentricity": 0.00017611,
      "inclination_deg": 53.2189,
      "raan_deg": 30.1359,
      "arg_perigee_deg": 87.0465,
      "mean_anomaly_deg": 273.0729,
      "mean_motion_rev_day": 15.08836162
    },
    {
      "epoch": "2026-04-09T04:44:27.580416Z",
      "apogee_km": 540.6808009885981,
      "perigee_km": 538.830264736057,
      "latitude_deg": -6.653977045861092e-06,
      "longitude_deg": 118.59798834632865,
      "height_km": 540.7130716245529,
      "semi_major_axis_km": 6917.892532862327,
      "eccentricity": 0.00013375,
      "inclination_deg": 53.2183,
      "raan_deg": 27.1621,
      "arg_perigee_deg": 93.8237,
      "mean_anomaly_deg": 266.2908,
      "mean_motion_rev_day": 15.08836027
    },
    {
      "epoch": "2026-04-10T04:35:14.355168Z",
      "apogee_km": 540.8208935097309,
      "perigee_km": 538.7736000487394,
      "latitude_deg": -5.049013821287629e-05,
      "longitude_deg": 115.46352434156422,
      "height_km": 540.7244937029355,
      "semi_major_axis_km": 6917.934246779235,
      "eccentricity": 0.00014797,
      "inclination_deg": 53.2185,
      "raan_deg": 22.7019,
      "arg_perigee_deg": 91.7684,
      "mean_anomaly_deg": 268.3477,
      "mean_motion_rev_day": 15.0882238
    },
    {
      "epoch": "2026-04-11T04:26:01.642272Z",
      "apogee_km": 540.6898913454806,
      "perigee_km": 538.8403210383694,
      "latitude_deg": -1.616986434665263e-05,
      "longitude_deg": 112.32697837347946,
      "height_km": 540.624773326275,
      "semi_major_axis_km": 6917.902106191925,
      "eccentricity": 0.00013368,
      "inclination_deg": 53.2184,
      "raan_deg": 18.2417,
      "arg_perigee_deg": 87.7579,
      "mean_anomaly_deg": 272.3566,
      "mean_motion_rev_day": 15.08832895
    },
    {
      "epoch": "2026-04-13T00:56:49.833888Z",
      "apogee_km": 540.8435027673477,
      "perigee_km": 538.6651971390747,
      "latitude_deg": -1.3842026166113525e-05,
      "longitude_deg": 154.4724801219022,
      "height_km": 540.4745159299287,
      "semi_major_axis_km": 6917.891349953211,
      "eccentricity": 0.00015744,
      "inclination_deg": 53.22,
      "raan_deg": 9.9161,
      "arg_perigee_deg": 80.7246,
      "mean_anomaly_deg": 279.3924,
      "mean_motion_rev_day": 15.08836414
    }
  ]
}